NORAD_CAT_ID,OBJECT_NAME,OBJECT_TYPE,EPOCH,MEAN_MOTION,ECCENTRICITY,INCLINATION,RA_OF_ASC_NODE,ARG_OF_PERICENTER,MEAN_ANOMALY,BSTAR,MEAN_MOTION_DOT,MEAN_MOTION_DDOT,TLE_LINE0,TLE_LINE1,TLE_LINE2,SEMIMAJOR_AXIS,PERIOD,APOGEE,PERIGEE,DECAYED
55404.0,STARLINK-5607,PAYLOAD,2024-03-31 20:10:39,14.98334441,0.0002901,70.001,49.3129,271.9116,88.171,4.3225e-05,4.23e-06,0.0,0 STARLINK-5607,1 55404U 23014P   24091.84073198  .00000423  00000-0  43225-4 0  9993,2 55404  70.0010  49.3129 0002901 271.9116  88.1710 14.98334441 65080,6950.179,96.107,574.06,570.028,0.0
55404.0,STARLINK-5607,PAYLOAD,2024-03-31 21:46:47,14.98335657,0.0002907,70.0009,49.1446,271.8817,88.2009,5.6238e-05,5.78e-06,0.0,0 STARLINK-5607,1 55404U 23014P   24091.90749050  .00000578  00000-0  56238-4 0  9996,2 55404  70.0009  49.1446 0002907 271.8817  88.2009 14.98335657 66039,6950.175,96.107,574.061,570.02,0.0
55404.0,STARLINK-5607,PAYLOAD,2024-04-01 07:23:34,14.98341382,0.0002878,70.0012,48.1347,270.9856,89.0973,9.7134e-05,1.067e-05,0.0,0 STARLINK-5607,1 55404U 23014P   24092.30804377  .00001067  00000-0  97134-4 0  9999,2 55404  70.0012  48.1347 0002878 270.9856  89.0973 14.98341382 65155,6950.158,96.106,574.023,570.022,0.0
55404.0,STARLINK-5607,PAYLOAD,2024-04-01 13:48:07,14.98332094,0.0002735,70.0023,47.4607,274.9478,85.1369,1.5984e-05,9.8e-07,0.0,0 STARLINK-5607,1 55404U 23014P   24092.57509126  .00000098  00000-0  15984-4 0  9998,2 55404  70.0023  47.4607 0002735 274.9478  85.1369 14.98332094 66139,6950.186,96.107,573.952,570.151,0.0
55404.0,STARLINK-5607,PAYLOAD,2024-04-02 13:50:09,14.98328952,0.0002787,70.0013,44.937,272.6385,87.4455,-4.0601e-05,-5.77e-06,0.0,0 STARLINK-5607,1 55404U 23014P   24093.57649481 -.00000577  00000-0 -40601-4 0  9996,2 55404  70.0013  44.9370 0002787 272.6385  87.4455 14.98328952 66281,6950.196,96.107,573.998,570.124,0.0
55404.0,STARLINK-5607,PAYLOAD,2024-04-02 20:14:41,14.98332741,0.0003059,70.0014,44.2638,274.5587,85.5222,-9.6862e-05,-1.249e-05,0.0,0 STARLINK-5607,1 55404U 23014P   24093.84353362 -.00001249  00000-0 -96862-4 0  9993,2 55404  70.0014  44.2638 0003059 274.5587  85.5222 14.98332741 65382,6950.184,96.107,574.175,569.923,0.0
55404.0,STARLINK-5607,PAYLOAD,2024-04-03 05:51:29,14.98330949,0.0002855,70.0015,43.2543,271.7582,88.325,-6.7406e-05,-8.97e-06,0.0,0 STARLINK-5607,1 55404U 23014P   24094.24409342 -.00000897  00000-0 -67406-4 0  9998,2 55404  70.0015  43.2543 0002855 271.7582  88.3250 14.98330949 66385,6950.19,96.107,574.039,570.071,0.0
55404.0,STARLINK-5607,PAYLOAD,2024-04-04 04:17:22,14.98325603,0.0002762,70.0015,40.8976,270.1684,89.9159,8.225e-06,5e-08,0.0,0 STARLINK-5607,1 55404U 23014P   24095.17873537  .00000005  00000-0  82250-5 0  9996,2 55404  70.0015  40.8976 0002762 270.1684  89.9159 14.98325603 65588,6950.206,96.107,573.991,570.152,0.0
55404.0,STARLINK-5607,PAYLOAD,2024-04-04 13:54:11,14.98323636,0.0002861,70.001,39.8861,272.9045,87.1787,8.6198e-05,9.35e-06,0.0,0 STARLINK-5607,1 55404U 23014P   24095.57929540  .00000935  00000-0  86198-4 0  9992,2 55404  70.0010  39.8861 0002861 272.9045  87.1787 14.98323636 66587,6950.213,96.107,574.066,570.089,0.0
55404.0,STARLINK-5607,PAYLOAD,2024-04-04 21:54:51,14.98328686,0.0002929,70.0009,39.0454,270.6293,89.4531,7.0389e-05,7.47e-06,0.0,0 STARLINK-5607,1 55404U 23014P   24095.91309208  .00000747  00000-0  70389-4 0  9999,2 55404  70.0009  39.0454 0002929 270.6293  89.4531 14.98328686 66638,6950.197,96.107,574.098,570.026,0.0
55404.0,STARLINK-5607,PAYLOAD,2024-04-05 02:43:15,14.98333168,0.0002942,70.001,38.5405,270.9515,89.1307,6.3865e-05,6.69e-06,0.0,0 STARLINK-5607,1 55404U 23014P   24096.11336942  .00000669  00000-0  63865-4 0  9991,2 55404  70.0010  38.5405 0002942 270.9515  89.1307 14.98333168 65723,6950.183,96.107,574.093,570.003,0.0
55404.0,STARLINK-5607,PAYLOAD,2024-04-05 13:56:11,14.98331462,0.0002943,70.0011,37.3625,271.099,88.9832,4.016e-05,3.86e-06,0.0,0 STARLINK-5607,1 55404U 23014P   24096.58068998  .00000386  00000-0  40160-4 0  9994,2 55404  70.0011  37.3625 0002943 271.0990  88.9832 14.98331462 66732,6950.188,96.107,574.099,570.008,0.0
55404.0,STARLINK-5607,PAYLOAD,2024-04-05 21:56:52,14.98329353,0.0002918,70.0013,36.5213,270.8263,89.2562,7.4086e-07,-8.4e-07,0.0,0 STARLINK-5607,1 55404U 23014P   24096.91449259 -.00000084  00000-0  74086-6 0  9996,2 55404  70.0013  36.5213 0002918 270.8263  89.2562 14.98329353 66785,6950.195,96.107,574.088,570.032,0.0
55404.0,STARLINK-5607,PAYLOAD,2024-04-06 02:45:16,14.98332803,0.0002852,70.0015,36.0163,270.2679,89.8153,3.7373e-05,3.53e-06,0.0,0 STARLINK-5607,1 55404U 23014P   24097.11476925  .00000353  00000-0  37373-4 0  9993,2 55404  70.0015  36.0163 0002852 270.2679  89.8153 14.98332803 65873,6950.184,96.107,574.031,570.067,0.0
55404.0,STARLINK-5607,PAYLOAD,2024-04-06 05:57:32,14.98333172,0.0002797,70.0014,35.6794,266.8521,93.2318,6.5203e-05,6.85e-06,0.0,0 STARLINK-5607,1 55404U 23014P   24097.24828791  .00000685  00000-0  65203-4 0  9990,2 55404  70.0014  35.6794 0002797 266.8521  93.2318 14.98333172 66831,6950.183,96.107,573.992,570.104,0.0
55404.0,STARLINK-5607,PAYLOAD,2024-04-06 21:58:52,14.9833635,0.000279,70.0017,33.9964,271.1309,88.953,0.00013065,1.467e-05,0.0,0 STARLINK-5607,1 55404U 23014P   24097.91588120  .00001467  00000-0  13065-3 0  9990,2 55404  70.0017  33.9964 0002790 271.1309  88.9530 14.98336350 66939,6950.173,96.107,573.977,570.099,0.0
55404.0,STARLINK-5607,PAYLOAD,2024-04-07 05:59:32,14.98343332,0.000278,70.0017,33.155,270.8836,89.2004,6.3904e-05,6.7e-06,0.0,0 STARLINK-5607,1 55404U 23014P   24098.24967596  .00000670  00000-0  63904-4 0  9998,2 55404  70.0017  33.1550 0002780 270.8836  89.2004 14.98343332 66042,6950.152,96.106,573.949,570.085,0.0
55404.0,STARLINK-5607,PAYLOAD,2024-04-07 12:24:04,14.98377709,0.0002334,70.005,32.4817,276.667,83.4224,-0.00091429,-0.00010998,0.0,0 STARLINK-5607,1 55404U 23014P   24098.51671628 -.00010998  00000-0 -91429-3 0  9994,2 55404  70.0050  32.4817 0002334 276.6670  83.4224 14.98377709 67026,6950.045,96.104,573.532,570.288,0.0
55404.0,STARLINK-5607,PAYLOAD,2024-04-07 18:48:37,14.98327442,0.0002498,70.0014,31.8085,274.6792,85.4082,-6.86e-05,-9.11e-06,0.0,0 STARLINK-5607,1 55404U 23014P   24098.78376964 -.00000911  00000-0 -68600-4 0  9998,2 55404  70.0014  31.8085 0002498 274.6792  85.4082 14.98327442 66123,6950.201,96.107,573.802,570.33,0.0
55404.0,STARLINK-5607,PAYLOAD,2024-04-07 22:00:54,14.98324944,0.0002519,70.0014,31.4719,274.348,85.7391,-9.4112e-05,-1.215e-05,0.0,0 STARLINK-5607,1 55404U 23014P   24098.91729202 -.00001215  00000-0 -94112-4 0  9995,2 55404  70.0014  31.4719 0002519 274.3480  85.7391 14.98324944 67084,6950.209,96.107,573.824,570.323,0.0
55404.0,STARLINK-5607,PAYLOAD,2024-04-08 12:26:06,14.98328126,0.0002716,70.0016,29.9573,269.9808,90.104,-9.3449e-05,-1.208e-05,0.0,0 STARLINK-5607,1 55404U 23014P   24099.51813114 -.00001208  00000-0 -93449-4 0  9992,2 55404  70.0016  29.9573 0002716 269.9808  90.1040 14.98328126 67176,6950.199,96.107,573.951,570.176,0.0
55404.0,STARLINK-5607,PAYLOAD,2024-04-08 23:39:02,14.98334332,0.0003074,70.0004,28.7777,273.5236,86.5572,-6.7609e-05,-9e-06,0.0,0 STARLINK-5607,1 55404U 23014P   24099.98544527 -.00000900  00000-0 -67609-4 0  9999,2 55404  70.0004  28.7777 0003074 273.5236  86.5572 14.98334332 67243,6950.179,96.107,574.181,569.908,0.0
55404.0,STARLINK-5607,PAYLOAD,2024-04-09 04:27:26,14.98338679,0.0002871,70.0008,28.2716,277.9478,82.1355,-4.3577e-05,-6.13e-06,0.0,0 STARLINK-5607,1 55404U 23014P   24100.18572178 -.00000613  00000-0 -43577-4 0  9996,2 55404  70.0008  28.2716 0002871 277.9478  82.1355 14.98338679 66333,6950.166,96.106,574.026,570.036,0.0
55404.0,STARLINK-5607,PAYLOAD,2024-04-09 12:28:06,14.98362464,0.0002004,70.0038,27.4319,284.5223,75.5714,-0.00076007,-9.157e-05,0.0,0 STARLINK-5607,1 55404U 23014P   24100.51952497 -.00009157  00000-0 -76007-3 0  9994,2 55404  70.0038  27.4319 0002004 284.5223  75.5714 14.98362464 67320,6950.093,96.105,573.35,570.565,0.0
55404.0,STARLINK-5607,PAYLOAD,2024-04-10 04:29:28,14.98321027,0.0002586,70.0012,25.7485,272.7724,87.3139,6.7717e-05,7.15e-06,0.0,0 STARLINK-5607,1 55404U 23014P   24101.18713303  .00000715  00000-0  67717-4 0  9997,2 55404  70.0012  25.7485 0002586 272.7724  87.3139 14.98321027 66485,6950.221,96.108,573.883,570.288,0.0
55404.0,STARLINK-5607,PAYLOAD,2024-04-10 12:30:08,14.98323524,0.0002691,70.001,24.9064,275.8746,84.2106,3.025e-05,2.68e-06,0.0,0 STARLINK-5607,1 55404U 23014P   24101.52093379  .00000268  00000-0  30250-4 0  9994,2 55404  70.0010  24.9064 0002691 275.8746  84.2106 14.98323524 67476,6950.213,96.107,573.948,570.208,0.0
55404.0,STARLINK-5607,PAYLOAD,2024-04-10 22:06:56,14.98328107,0.0002855,70.0004,23.8963,273.2923,86.7909,-3.3213e-05,-4.89e-06,0.0,0 STARLINK-5607,1 55404U 23014P   24101.92149253 -.00000489  00000-0 -33213-4 0  9990,2 55404  70.0004  23.8963 0002855 273.2923  86.7909 14.98328107 67533,6950.199,96.107,574.048,570.079,0.0
55404.0,STARLINK-5607,PAYLOAD,2024-04-11 04:31:28,14.98331576,0.0002782,70.0006,23.223,272.0205,88.0635,-1.5417e-05,-2.77e-06,0.0,0 STARLINK-5607,1 55404U 23014P   24102.18852999 -.00000277  00000-0 -15417-4 0  9998,2 55404  70.0006  23.2230 0002782 272.0205  88.0635 14.98331576 66630,6950.188,96.107,573.987,570.119,0.0
55404.0,STARLINK-5607,PAYLOAD,2024-04-11 12:32:09,14.98332941,0.0002782,70.0008,22.3825,277.2624,82.8219,-2.4318e-05,-3.83e-06,0.0,0 STARLINK-5607,1 55404U 23014P   24102.52232944 -.00000383  00000-0 -24318-4 0  9996,2 55404  70.0008  22.3825 0002782 277.2624  82.8219 14.98332941 67621,6950.184,96.107,573.982,570.115,0.0
55404.0,STARLINK-5607,PAYLOAD,2024-04-11 22:08:57,14.98327291,0.0002924,70.0008,21.3723,272.9513,87.1312,7.7162e-05,8.28e-06,0.0,0 STARLINK-5607,1 55404U 23014P   24102.92289020  .00000828  00000-0  77162-4 0  9994,2 55404  70.0008  21.3723 0002924 272.9513  87.1312 14.98327291 67684,6950.201,96.107,574.099,570.034,0.0
